{
    "CCSDS_OMM_VERS": "3.0",
    "COMMENT": "GENERATED VIA SPACE-TRACK.ORG API",
    "CREATION_DATE": "2025-11-22T18:56:57",
    "ORIGINATOR": "18 SPCS",
    "OBJECT_NAME": "GALILEO 9 (205)",
    "OBJECT_ID": "2015-045A",
    "CENTER_NAME": "EARTH",
    "REF_FRAME": "TEME",
    "TIME_SYSTEM": "UTC",
    "MEAN_ELEMENT_THEORY": "SGP4",
    "EPOCH": "2025-11-21T14:03:37.007136",
    "MEAN_MOTION": "1.70473009",
    "ECCENTRICITY": "0.00056453",
    "INCLINATION": "55.0112",
    "RA_OF_ASC_NODE": "227.3429",
    "ARG_OF_PERICENTER": "36.1208",
    "MEAN_ANOMALY": "323.9943",
    "EPHEMERIS_TYPE": "0",
    "CLASSIFICATION_TYPE": "U",
    "NORAD_CAT_ID": "40889",
    "ELEMENT_SET_NO": "999",
    "REV_AT_EPOCH": "6347",
    "BSTAR": "0.00000000000000",
    "MEAN_MOTION_DOT": "0.00000022",
    "MEAN_MOTION_DDOT": "0.0000000000000",
    "SEMIMAJOR_AXIS": "29600.435",
    "PERIOD": "844.709",
    "APOAPSIS": "23239.010",
    "PERIAPSIS": "23205.589",
    "OBJECT_TYPE": "PAYLOAD",
    "RCS_SIZE": "LARGE",
    "COUNTRY_CODE": "ESA",
    "LAUNCH_DATE": "2015-09-11",
    "SITE": "FRGUI",
    "DECAY_DATE": null,
    "FILE": "4894246",
    "GP_ID": "303252799",
    "TLE_LINE0": "0 GALILEO 9 (205)",
    "TLE_LINE1": "1 40889U 15045A   25325.58584499  .00000022  00000-0  00000-0 0  9997",
    "TLE_LINE2": "2 40889  55.0112 227.3429 0005645  36.1208 323.9943  1.70473009 63478"
}